satname,norad_id,inclination_deg,eccentricity,mean_motion_rev_per_day,perigee_km,apogee_km,l1,l2
STARLINK-1132,45044,53.0565,0.000126,15.06387897,546.3760535463143,548.1212507306536,1 45044U 20006A   25251.99552209  .00006229  00000+0  43686-3 0  9999,2 45044  53.0565   2.2755 0001260  89.1217 270.9917 15.06387897309350
STARLINK-1131,45047,53.0564,0.0001222,15.06394769,546.3813106933421,548.0738697991983,1 45047U 20006D   25252.10431581  .00000024  00000+0  20489-4 0  9999,2 45047  53.0564  22.3264 0001222  79.5787 280.5340 15.06394769309086
STARLINK-1134,45048,53.0495,0.0005484,15.22723061,493.8604906417431,501.40183316171624,1 45048U 20006E   25251.59079320  .00036289  00000+0  15421-2 0  9991,2 45048  53.0495   9.3539 0005484 328.7233  31.3436 15.22723061309222
STARLINK-1156,45054,53.0582,0.0001235,15.06429616,546.2655213136959,547.9760599879864,1 45054U 20006L   25252.07475518 -.00008077  00000+0 -52354-3 0  9994,2 45054  53.0582  21.9237 0001235  79.2929 280.8199 15.06429616309083
STARLINK-1159,45057,53.0566,0.000144,15.06393544,546.234091677471,548.2285977607498,1 45057U 20006P   25252.08952052  .00001601  00000+0  12635-3 0  9993,2 45057  53.0566  21.8535 0001440  85.1591 274.9562 15.06393544309096
STARLINK-1166,45060,53.0553,0.0001074,15.06397179,546.4764205467718,547.9639872741718,1 45060U 20006S   25252.10056125  .00000945  00000+0  82320-4 0  9995,2 45060  53.0553  21.8055 0001074  92.6705 267.4407 15.06397179309099
STARLINK-1169,45061,53.0561,0.0001378,15.06392441,546.2804090577147,548.1890415052021,1 45061U 20006T   25251.64351126  .00001205  00000+0  99809-4 0  9993,2 45061  53.0561  23.8576 0001378  92.8152 267.2995 15.06392441309024
STARLINK-1171,45062,53.0556,0.0001341,15.06401913,546.2770064196211,548.1343833303863,1 45062U 20006U   25252.09318737 -.00002429  00000+0 -14423-3 0  9994,2 45062  53.0556  21.8339 0001341  90.4497 269.6645 15.06401913309090
STARLINK-1133,45064,53.056,0.0001399,15.06401214,546.2389814628996,548.1766929483501,1 45064U 20006W   25252.30514930  .00007637  00000+0  53104-3 0  9996,2 45064  53.0560   0.8837 0001399  76.2272 283.8873 15.06401214309403
STARLINK-1150,45067,53.0443,0.0004065,15.89464224,301.06779684716366,306.5001986183206,1 45067U 20006Z   25252.25004630  .00162711  00000+0  53718-3 0  9990,2 45067  53.0443 314.2680 0004065 316.0710  13.7896 15.89464224  5992
STARLINK-1167,45071,53.0567,0.0001426,15.06402391,546.2166762179559,548.1917835367176,1 45071U 20006AD  25252.26459574  .00004259  00000+0  30461-3 0  9999,2 45071  53.0567   1.0711 0001426  73.6400 286.4746 15.06402391309390
STARLINK-1168,45072,53.0564,0.0001149,15.06398285,546.4210910180109,548.0125373245073,1 45072U 20006AE  25252.00288880  .00005639  00000+0  39716-3 0  9997,2 45072  53.0564   2.2445 0001149 101.9386 258.1732 15.06398285309358
STARLINK-1172,45074,53.0563,0.0001234,15.06392121,546.3811150518204,548.0902970356728,1 45074U 20006AG  25252.01394572 -.00001929  00000+0 -11065-3 0  9993,2 45074  53.0563   2.1956 0001234  80.6317 279.4812 15.06392121309355
STARLINK-1153,45080,53.0564,0.0001358,15.06408295,546.2456761928925,548.1265939563791,1 45080U 20006AN  25251.59376219  .00012337  00000+0  84545-3 0  9996,2 45080  53.0564   4.0823 0001358  80.6895 279.4247 15.06408295309290
STARLINK-1151,45081,53.0554,0.0001335,15.06402026,546.2808153435035,548.1298817505649,1 45081U 20006AP  25252.04344227  .00006215  00000+0  43575-3 0  9998,2 45081  53.0554   2.1351 0001335  77.0742 283.0396 15.06402026309361
STARLINK-1190,45083,53.0521,0.0006945,15.71010229,351.33169507102684,360.6854232527039,1 45083U 20006AR  25252.00005787  .00018254  00000+0  14694-3 0  9997,2 45083  53.0521 340.2776 0006945 351.5483 112.6066 15.71010229  5825
STARLINK-1173,45084,53.0471,0.0010121,15.77744754,330.0357702384581,343.6282104687325,1 45084U 20006AS  25252.25004630  .00057515  00000+0  33644-3 0  9990,2 45084  53.0471 303.6592 0010121 325.1693   3.8126 15.77744754  6024
STARLINK-1179,45085,53.0417,0.0006233,15.88334563,302.78503295099654,311.11866470994937,1 45085U 20006AT  25252.25004630  .00259424  00000+0  89424-3 0  9991,2 45085  53.0417 295.3041 0006233 335.0837 181.1498 15.88334563  5947
STARLINK-1185,45087,53.0581,0.0001593,15.06388265,546.1443105018989,548.350738011326,1 45087U 20006AV  25252.28486993  .00000994  00000+0  85636-4 0  9990,2 45087  53.0581 340.9773 0001593  95.8107 264.3064 15.06388265309684
STARLINK-1183,45088,53.0562,9.69e-05,15.06393981,546.5589373049861,547.9010734306266,1 45088U 20006AW  25251.97525796  .00010455  00000+0  71987-3 0  9997,2 45088  53.0562 342.3676 0000969  61.0801 299.0285 15.06393981309630
STARLINK-1176,45090,53.0534,0.0005837,15.75406946,339.5500145741762,347.39682257682125,1 45090U 20006AY  25252.25004630  .00129428  00000+0  82878-3 0  9993,2 45090  53.0534 301.1656 0005837 304.2713 285.0245 15.75406946  5913
STARLINK-1142,45093,53.0401,0.0006249,15.48500538,416.8629647544485,425.3606659238603,1 45093U 20006BB  25252.10787188  .00053964  00000+0  99882-3 0  9990,2 45093  53.0401 292.8381 0006249  15.0586 345.0606 15.48500538310349
STARLINK-1146,45094,53.0481,0.000677,15.89016795,300.51374164160916,309.5627609318526,1 45094U 20006BC  25252.25004630  .00223249  00000+0  74696-3 0  9992,2 45094  53.0481 296.4606 0006770 326.9998 115.0313 15.89016795  6005
STARLINK-1147,45095,53.0482,0.0009734,15.86795505,304.76232666907345,317.7852716128409,1 45095U 20006BD  25252.25004630  .00141353  00000+0  53289-3 0  9993,2 45095  53.0482 299.0097 0009734 336.7567 220.0537 15.86795505  5941
STARLINK-1152,45096,53.0525,0.0004193,15.20183091,502.40164464277586,508.1740847343035,1 45096U 20006BE  25252.25548160  .00010107  00000+0  47500-3 0  9996,2 45096  53.0525 329.0547 0004193  18.6220 341.4928 15.20183091309847
STARLINK-1184,45098,53.0557,0.0001209,15.06398086,546.380148728952,548.0546994286933,1 45098U 20006BG  25251.99000430  .00011611  00000+0  79712-3 0  9992,2 45098  53.0557 342.3014 0001209  72.0253 288.0868 15.06398086309638
STARLINK-1193,45100,53.0556,0.0001679,15.06398289,546.0540350084702,548.3795688151531,1 45100U 20006BJ  25252.25170092  .00004934  00000+0  34991-3 0  9998,2 45100  53.0556 341.1261 0001679  93.6896 266.4285 15.06398289309677
STARLINK-1143,45179,53.0571,0.0005179,15.32063419,466.1104038014055,473.2033486984237,1 45179U 20012B   25251.95165950  .00054789  00000+0  17439-2 0  9994,2 45179  53.0571 117.2034 0005179 111.6330 248.5223 15.32063419307802
STARLINK-1200,45181,53.0343,0.0007477,16.3038963,186.58079986299072,196.40502443361675,1 45181U 20012D   25253.01649637  .04431171  12111-4  90543-3 0  9992,2 45181  53.0343  85.3840 0007477 295.8397  64.1874 16.30389630308331
STARLINK-1201,45182,53.037,0.0001187,15.99865813,274.0009775142298,275.58038254546955,1 45182U 20012E   25252.25004630  .00419994  86444-4  81174-3 0  9991,2 45182  53.0370  70.8090 0001187  71.2785 118.6125 15.99865813  6073
STARLINK-1202,45183,53.0549,0.000142,15.06392267,546.251855710193,548.218661431627,1 45183U 20012F   25251.98261982  .00000349  00000+0  42342-4 0  9990,2 45183  53.0549 142.3322 0001420  92.0769 268.0383 15.06392267307456
STARLINK-1216,45185,53.0538,0.0001051,15.06394399,546.500868312156,547.9565801873932,1 45185U 20012H   25252.10793702  .00000717  00000+0  67044-4 0  9992,2 45185  53.0538 141.7714 0001051  86.9703 273.1406 15.06394399307411
STARLINK-1224,45186,53.0371,0.000223,16.02044009,267.2766835319062,270.24119912173774,1 45186U 20012J   25252.03232688  .00437731  95876-4  74530-3 0  9993,2 45186  53.0371  93.1124 0002230  84.3504 275.7780 16.02044009308087
STARLINK-1225,45187,53.0535,0.0001335,15.0641747,546.233488537312,548.0825423064298,1 45187U 20012K   25251.99364588  .00002578  00000+0  19180-3 0  9990,2 45187  53.0535 142.2854 0001335  86.4889 273.6253 15.06417470307440
STARLINK-1228,45188,53.033,0.0007735,16.13347634,232.5584026766246,242.79306497585276,1 45188U 20012L   25252.87254226  .00843747  43524-3  69682-3 0  9991,2 45188  53.0330  25.8209 0007735 339.1925  20.8794 16.13347634309103
STARLINK-1230,45189,53.0542,0.0001195,15.06398711,546.3879289156739,548.0430881652155,1 45189U 20012M   25252.13005422  .00000585  00000+0  58172-4 0  9999,2 45189  53.0542 141.6732 0001195  82.8591 277.2534 15.06398711304694
STARLINK-1234,45190,53.0531,0.000144,15.0640177,546.2088837373421,548.2033825596882,1 45190U 20012N   25252.01578966 -.00001976  00000+0 -11378-3 0  9999,2 45190  53.0531 102.1829 0001440  78.8608 281.2543 15.06401770307913
STARLINK-1237,45192,53.0444,0.000265,16.10071311,244.89210590125185,248.40324177838556,1 45192U 20012Q   25252.46091657  .00668872  24906-3  69084-3 0  9991,2 45192  53.0444  89.4984 0002650 264.0603  96.0129 16.10071311308233
STARLINK-1240,45194,53.0383,0.0004494,15.93653789,289.0705118249316,295.0656921706077,1 45194U 20012S   25252.25004630  .00312387  48740-4  85098-3 0  9998,2 45194  53.0383  92.7198 0004494  91.3802 224.2020 15.93653789  6001
STARLINK-1244,45196,53.0363,0.0001967,15.98321532,277.76584116667436,280.38478849132844,1 45196U 20012U   25252.25004630  .00314904  51878-4  66567-3 0  9993,2 45196  53.0363  92.3857 0001967  99.1873  88.2426 15.98321532  6017
STARLINK-1269,45197,53.0547,0.0001479,15.06385016,546.2332162769499,548.281747964761,1 45197U 20012V   25252.07476388  .00000890  00000+0  78676-4 0  9994,2 45197  53.0547 141.9228 0001479  96.7567 263.3590 15.06385016307430
STARLINK-1154,45198,53.0543,0.000139,15.06397129,546.2577324811082,548.1829818263968,1 45198U 20012W   25252.06554738 -.00002134  00000+0 -12440-3 0  9991,2 45198  53.0543 121.9622 0001390  82.8666 277.2481 15.06397129307689
STARLINK-1199,45201,53.0556,0.0001402,15.06392716,546.2629454414264,548.2048194368617,1 45201U 20012Z   25252.01026897 -.00000131  00000+0  10105-4 0  9992,2 45201  53.0556 122.2117 0001402  99.5186 260.5961 15.06392716307738
